[
    {
        "CCSDS_OMM_VERS": "3.0",
        "COMMENT": "GENERATED VIA SPACE-TRACK.ORG API",
        "CREATION_DATE": "2025-05-04T07:06:18",
        "ORIGINATOR": "18 SPCS",
        "OBJECT_NAME": "BEIDOU 16",
        "OBJECT_ID": "2012-059A",
        "CENTER_NAME": "EARTH",
        "REF_FRAME": "TEME",
        "TIME_SYSTEM": "UTC",
        "MEAN_ELEMENT_THEORY": "SGP4",
        "EPOCH": "2025-05-04T01:02:57.984288",
        "MEAN_MOTION": "1.00272839",
        "ECCENTRICITY": "0.00103500",
        "INCLINATION": "3.3830",
        "RA_OF_ASC_NODE": "77.7247",
        "ARG_OF_PERICENTER": "310.7281",
        "MEAN_ANOMALY": "293.5059",
        "EPHEMERIS_TYPE": "0",
        "CLASSIFICATION_TYPE": "U",
        "NORAD_CAT_ID": "38953",
        "ELEMENT_SET_NO": "999",
        "REV_AT_EPOCH": "4594",
        "BSTAR": "0.00000000000000",
        "MEAN_MOTION_DOT": "-0.00000184",
        "MEAN_MOTION_DDOT": "0.0000000000000",
        "SEMIMAJOR_AXIS": "42164.436",
        "PERIOD": "1436.082",
        "APOAPSIS": "35829.942",
        "PERIAPSIS": "35742.661",
        "OBJECT_TYPE": "PAYLOAD",
        "RCS_SIZE": "LARGE",
        "COUNTRY_CODE": "PRC",
        "LAUNCH_DATE": "2012-10-25",
        "SITE": "XSC",
        "DECAY_DATE": null,
        "FILE": "4718590",
        "GP_ID": "286819903",
        "TLE_LINE0": "0 BEIDOU 16",
        "TLE_LINE1": "1 38953U 12059A   25124.04372667 -.00000184  00000-0  00000+0 0  9997",
        "TLE_LINE2": "2 38953   3.3830  77.7247 0010350 310.7281 293.5059  1.00272839 45949"
    }
]